     2              NAVIGATION DATA                         RINEX VERSION / TYPE
CCRINEXN V1.6.0 UX  CDDIS               13-SEP-19 23:31     PGM / RUN BY / DATE 
IGS BROADCAST EPHEMERIS FILE                                COMMENT             
    0.7451D-08  0.1490D-07 -0.5960D-07 -0.1192D-06          ION ALPHA           
    0.7987D+05  0.1638D+05 -0.1311D+06 -0.1311D+06          ION BETA            
    0.279396772385D-08-0.888178419700D-15    61440     2071 DELTA-UTC: A0,A1,T,W
    18                                                      LEAP SECONDS        
                                                            END OF HEADER       
28 19  9 13 11 59 44.0 0.762311741710D-03-0.102318153950D-11 0.000000000000D+00
    0.500000000000D+01-0.344687500000D+02 0.394659296287D-08-0.243507444055D+01
   -0.170245766640D-05 0.190706648864D-01 0.952370464802D-05 0.515370509529D+04
    0.475184000000D+06 0.199303030968D-06-0.585636726006D+00 0.199303030968D-06
    0.980843408751D+00 0.198406250000D+03-0.145818777755D+01-0.738780773185D-08
   -0.320727645308D-09 0.100000000000D+01 0.207000000000D+04 0.000000000000D+00
    0.200000000000D+01 0.000000000000D+00-0.111758708954D-07 0.500000000000D+01
    0.468018000000D+06 0.400000000000D+01 0.000000000000D+00 0.000000000000D+00
 1 19  9 13 12  0  0.0-0.127418898046D-03-0.125055521494D-10 0.000000000000D+00
    0.550000000000D+02 0.292500000000D+02 0.465983695806D-08 0.855536755443D+00
    0.168569386005D-05 0.910724501591D-02 0.265799462795D-05 0.515364416695D+04
    0.475200000000D+06 0.931322574616D-08 0.142309578581D+01 0.115483999252D-06
    0.976587818094D+00 0.335125000000D+03 0.763452714241D+00-0.847678166341D-08
   -0.200008331150D-10 0.100000000000D+01 0.207000000000D+04 0.000000000000D+00
    0.200000000000D+01 0.000000000000D+00 0.558793544769D-08 0.550000000000D+02
    0.468018000000D+06 0.400000000000D+01 0.000000000000D+00 0.000000000000D+00
 2 19  9 13 12  0  0.0-0.304115470499D-03-0.818545231596D-11 0.000000000000D+00
    0.115000000000D+03 0.394375000000D+02 0.520628829138D-08 0.112087034754D+01
    0.176578760147D-05 0.191318748984D-01 0.290572643280D-05 0.515352897263D+04
    0.475200000000D+06-0.391155481339D-06 0.135208445927D+01-0.208616256714D-06
    0.955699827568D+00 0.327031250000D+03-0.171535281398D+01-0.886608359368D-08
    0.917895376884D-10 0.100000000000D+01 0.207000000000D+04 0.000000000000D+00
    0.200000000000D+01 0.000000000000D+00-0.204890966415D-07 0.115000000000D+03
    0.468000000000D+06 0.000000000000D+00 0.000000000000D+00 0.000000000000D+00
 3 19  9 13 12  0  0.0-0.105523504317D-04-0.397903932026D-11 0.000000000000D+00
    0.540000000000D+02-0.922500000000D+02 0.445839999597D-08-0.251189545658D+00
   -0.489503145218D-05 0.251132820267D-02 0.741146504879D-05 0.515371713829D+04
    0.475200000000D+06-0.223517417908D-07 0.246543672743D+01 0.353902578354D-07
    0.963829509105D+00 0.235937500000D+03 0.739608551025D+00-0.813283876538D-08
   -0.479305679291D-09 0.100000000000D+01 0.207000000000D+04 0.000000000000D+00
    0.200000000000D+01 0.000000000000D+00 0.186264514923D-08 0.540000000000D+02
    0.468018000000D+06 0.400000000000D+01 0.000000000000D+00 0.000000000000D+00
 4 19  9 13 12  0  0.0 0.808746553957D-04-0.553654899704D-10 0.000000000000D+00
    0.910000000000D+02 0.620937500000D+02 0.430160775066D-08-0.312339231714D+01
    0.306405127049D-05 0.146978046978D-01 0.117067247629D-04 0.515367987061D+04
    0.475200000000D+06-0.100582838059D-06 0.264474879663D+00-0.223517417908D-06
    0.959088176981D+00 0.152250000000D+03 0.680076931363D+00-0.763317509524D-08
    0.174292974288D-09 0.100000000000D+01 0.207000000000D+04 0.000000000000D+00
    0.280000000000D+01 0.630000000000D+02-0.558793544769D-08 0.910000000000D+02
    0.468018000000D+06 0.400000000000D+01 0.000000000000D+00 0.000000000000D+00
 5 19  9 13 12  0  0.0-0.137975439429D-05-0.341060513165D-12 0.000000000000D+00
    0.620000000000D+02-0.109375000000D+03 0.469269546960D-08-0.253434208392D+01
   -0.564754009247D-05 0.588567357045D-02 0.777281820774D-05 0.515376915932D+04
    0.475200000000D+06 0.763684511185D-07 0.243709804246D+01-0.335276126862D-07
    0.950686337090D+00 0.223468750000D+03 0.782542567788D+00-0.819176979152D-08
   -0.452161691492D-09 0.100000000000D+01 0.207000000000D+04 0.000000000000D+00
    0.200000000000D+01 0.000000000000D+00-0.111758708954D-07 0.620000000000D+02
    0.468000000000D+06 0.000000000000D+00 0.000000000000D+00 0.000000000000D+00
 6 19  9 13 12  0  0.0-0.560465268791D-04-0.123918653117D-10 0.000000000000D+00
    0.460000000000D+02 0.271875000000D+02 0.459519140817D-08 0.119171873281D+01
    0.133551657200D-05 0.137121637817D-02 0.233575701714D-05 0.515365102577D+04
    0.475200000000D+06-0.186264514923D-08 0.141481741328D+01-0.763684511185D-07
    0.976215691233D+00 0.342093750000D+03-0.114503229021D+01-0.832034657583D-08
    0.585738684082D-10 0.100000000000D+01 0.207000000000D+04 0.000000000000D+00
    0.200000000000D+01 0.000000000000D+00 0.419095158577D-08 0.460000000000D+02
    0.468828000000D+06 0.400000000000D+01 0.000000000000D+00 0.000000000000D+00
 7 19  9 13 12  0  0.0-0.105454586446D-03-0.795807864051D-11 0.000000000000D+00
    0.101000000000D+03 0.202187500000D+02 0.508664045042D-08 0.219518337694D+00
    0.116415321827D-05 0.131604241906D-01 0.394880771637D-05 0.515372482681D+04
    0.475200000000D+06 0.931322574616D-08-0.171083764607D+01 0.264495611191D-06
    0.954356802940D+00 0.301375000000D+03-0.243088796838D+01-0.860214402811D-08
    0.191436545529D-09 0.100000000000D+01 0.207000000000D+04 0.000000000000D+00
    0.200000000000D+01 0.000000000000D+00-0.111758708954D-07 0.101000000000D+03
    0.468018000000D+06 0.400000000000D+01 0.000000000000D+00 0.000000000000D+00
 8 19  9 13 12  0  0.0-0.630365684629D-05-0.136424205266D-11 0.000000000000D+00
    0.860000000000D+02 0.748437500000D+02 0.417874549009D-08-0.306508950185D+01
    0.400468707085D-05 0.443099008407D-02 0.105760991573D-04 0.515355769348D+04
    0.475200000000D+06-0.106170773506D-06 0.355535495561D+00-0.186264514923D-08
    0.970548778155D+00 0.180593750000D+03-0.229001689514D+00-0.773175062988D-08
    0.262868092368D-09 0.100000000000D+01 0.207000000000D+04 0.000000000000D+00
    0.200000000000D+01 0.000000000000D+00 0.512227416039D-08 0.860000000000D+02
    0.468018000000D+06 0.400000000000D+01 0.000000000000D+00 0.000000000000D+00
 9 19  9 13 12  0  0.0-0.301827676594D-04-0.954969436862D-11 0.000000000000D+00
    0.650000000000D+02 0.227500000000D+02 0.437661087484D-08-0.279057784553D+01
    0.122934579849D-05 0.138344615698D-02 0.112336128950D-04 0.515360453033D+04
    0.475200000000D+06-0.279396772385D-07-0.278636647450D+01-0.763684511185D-07
    0.952997624771D+00 0.160437500000D+03 0.168390731672D+01-0.785425573271D-08
    0.291797868838D-09 0.100000000000D+01 0.207000000000D+04 0.000000000000D+00
    0.200000000000D+01 0.000000000000D+00 0.139698386192D-08 0.650000000000D+02
    0.468018000000D+06 0.400000000000D+01 0.000000000000D+00 0.000000000000D+00
10 19  9 13 12  0  0.0-0.520003959537D-04-0.152340362547D-10 0.000000000000D+00
    0.179000000000D+03-0.105125000000D+03 0.436446745411D-08-0.112896585092D+01
   -0.554695725441D-05 0.482585967984D-02 0.785663723946D-05 0.515366755676D+04
    0.475200000000D+06 0.173225998878D-06 0.246225877050D+01-0.124797224999D-06
    0.963826006879D+00 0.232875000000D+03-0.273414184099D+01-0.802819144496D-08
   -0.526807653056D-09 0.100000000000D+01 0.207000000000D+04 0.000000000000D+00
    0.200000000000D+01 0.000000000000D+00 0.186264514923D-08 0.179000000000D+03
    0.468030000000D+06 0.000000000000D+00 0.000000000000D+00 0.000000000000D+00
11 19  9 13 12  0  0.0-0.508300960064D-03 0.108002495835D-10 0.000000000000D+00
    0.810000000000D+02 0.799375000000D+02 0.608275337109D-08 0.103369361383D+00
    0.427104532719D-05 0.167147723259D-01 0.497885048389D-05 0.515372557068D+04
    0.475200000000D+06-0.145286321640D-06 0.965059227802D+00-0.124797224999D-06
    0.910432169737D+00 0.258875000000D+03 0.194280265755D+01-0.923681332178D-08
    0.330013746397D-09 0.100000000000D+01 0.207000000000D+04 0.000000000000D+00
    0.200000000000D+01 0.000000000000D+00-0.121071934700D-07 0.810000000000D+02
    0.468018000000D+06 0.400000000000D+01 0.000000000000D+00 0.000000000000D+00
12 19  9 13 12  0  0.0 0.204443000257D-03-0.375166564481D-11 0.000000000000D+00
    0.340000000000D+02-0.412187500000D+02 0.414410118988D-08-0.448844293241D+00
   -0.208988785744D-05 0.747596856672D-02 0.100806355476D-04 0.515358269692D+04
    0.475200000000D+06 0.000000000000D+00-0.608432142270D+00 0.838190317154D-07
    0.981538533294D+00 0.202875000000D+03 0.110422206623D+01-0.788961434839D-08
   -0.438946855327D-09 0.100000000000D+01 0.207000000000D+04 0.000000000000D+00
    0.200000000000D+01 0.000000000000D+00-0.125728547573D-07 0.340000000000D+02
    0.473009000000D+06 0.400000000000D+01 0.000000000000D+00 0.000000000000D+00
13 19  9 13 12  0  0.0-0.445772893727D-04 0.204636307899D-11 0.000000000000D+00
    0.550000000000D+02 0.376875000000D+02 0.409767068443D-08 0.215231636329D+01
    0.194460153580D-05 0.374883809127D-02 0.110752880573D-04 0.515367358398D+04
    0.475200000000D+06 0.596046447754D-07-0.264751909973D+01-0.428408384323D-07
    0.968268428267D+00 0.169250000000D+03 0.121038015470D+01-0.779853912617D-08
    0.518593030053D-09 0.100000000000D+01 0.207000000000D+04 0.000000000000D+00
    0.200000000000D+01 0.000000000000D+00-0.111758708954D-07 0.550000000000D+02
    0.468023000000D+06 0.400000000000D+01 0.000000000000D+00 0.000000000000D+00
